NORAD_CAT_ID,OBJECT_NAME,OBJECT_TYPE,EPOCH,MEAN_MOTION,ECCENTRICITY,INCLINATION,RA_OF_ASC_NODE,ARG_OF_PERICENTER,MEAN_ANOMALY,BSTAR,MEAN_MOTION_DOT,MEAN_MOTION_DDOT,TLE_LINE0,TLE_LINE1,TLE_LINE2,SEMIMAJOR_AXIS,PERIOD,APOGEE,PERIGEE,DECAYED
53433.0,STARLINK-4549,PAYLOAD,2024-04-10 10:50:41,15.08848259,0.0001475,53.2198,358.6286,87.5248,272.5913,0.00014805,2.07e-05,0.0,0 STARLINK-4549,1 53433U 22097AX  24101.45186794  .00002070  00000-0  14805-3 0  9990,2 53433  53.2198 358.6286 0001475  87.5248 272.5913 15.08848259 93356,6917.855,95.437,540.741,538.7,0.0
53433.0,STARLINK-4549,PAYLOAD,2024-04-10 21:58:23,15.08838317,0.0001559,53.2201,356.5464,105.5759,254.5406,7.4317e-05,8.95e-06,0.0,0 STARLINK-4549,1 53433U 22097AX  24101.91555321  .00000895  00000-0  74317-4 0  9995,2 53433  53.2201 356.5464 0001559 105.5759 254.5406 15.08838317 93426,6917.886,95.438,540.829,538.672,0.0
53433.0,STARLINK-4549,PAYLOAD,2024-04-11 02:44:33,15.08840407,0.0001472,53.2191,355.6547,107.075,253.0404,2.0768e-06,-2.55e-06,0.0,0 STARLINK-4549,1 53433U 22097AX  24102.11427232 -.00000255  00000-0  20768-5 0  9990,2 53433  53.2191 355.6547 0001472 107.0750 253.0404 15.08840407 93456,6917.879,95.438,540.762,538.726,0.0
53433.0,STARLINK-4549,PAYLOAD,2024-04-11 20:13:48,15.08822155,0.0001502,53.2194,352.3827,117.9934,242.121,0.00061776,9.553e-05,0.0,0 STARLINK-4549,1 53433U 22097AX  24102.84292428  .00009553  00000-0  61776-3 0  9998,2 53433  53.2194 352.3827 0001502 117.9934 242.1210 15.08822155 93108,6917.935,95.439,540.839,538.761,0.0
53433.0,STARLINK-4549,PAYLOAD,2024-04-11 21:49:11,15.08821291,0.0001479,53.2194,352.0855,118.0094,242.1048,0.00070526,0.00010948,0.0,0 STARLINK-4549,1 53433U 22097AX  24102.90916551  .00010948  00000-0  70526-3 0  9998,2 53433  53.2194 352.0855 0001479 118.0094 242.1048 15.08821291 93578,6917.938,95.439,540.826,538.779,0.0
53433.0,STARLINK-4549,PAYLOAD,2024-04-11 23:24:34,15.08840301,0.0001464,53.2193,351.7899,85.6951,274.4209,0.0001757,2.509e-05,0.0,0 STARLINK-4549,1 53433U 22097AX  24102.97539486  .00002509  00000-0  17570-3 0  9997,2 53433  53.2193 351.7899 0001464  85.6951 274.4209 15.08840301 93127,6917.879,95.438,540.757,538.732,0.0
53433.0,STARLINK-4549,PAYLOAD,2024-04-12 21:39:58,15.0883844,0.000141,53.2187,347.6277,87.2856,272.8297,0.00015148,2.124e-05,0.0,0 STARLINK-4549,1 53433U 22097AX  24103.90275729  .00002124  00000-0  15148-3 0  9990,2 53433  53.2187 347.6277 0001410  87.2856 272.8297 15.08838440 93723,6917.885,95.438,540.726,538.775,0.0
53433.0,STARLINK-4549,PAYLOAD,2024-04-12 23:15:21,15.08840499,0.0001351,53.2183,347.329,83.3598,276.7548,0.00011862,1.6e-05,0.0,0 STARLINK-4549,1 53433U 22097AX  24103.96899599  .00001600  00000-0  11862-3 0  9990,2 53433  53.2183 347.3290 0001351  83.3598 276.7548 15.08840499 93274,6917.879,95.438,540.678,538.809,0.0
53433.0,STARLINK-4549,PAYLOAD,2024-04-13 21:30:45,15.0884072,0.0001333,53.2184,343.1679,86.798,273.3165,5.662e-05,6.13e-06,0.0,0 STARLINK-4549,1 53433U 22097AX  24104.89635612  .00000613  00000-0  56620-4 0  9992,2 53433  53.2184 343.1679 0001333  86.7980 273.3165 15.08840720 93873,6917.878,95.438,540.665,538.821,0.0
53433.0,STARLINK-4549,PAYLOAD,2024-04-14 02:16:54,15.08841924,0.0001332,53.2183,342.2747,84.2183,275.8961,6.5961e-05,7.62e-06,0.0,0 STARLINK-4549,1 53433U 22097AX  24105.09507534  .00000762  00000-0  65961-4 0  9999,2 53433  53.2183 342.2747 0001332  84.2183 275.8961 15.08841924 93446,6917.875,95.437,540.661,538.818,0.0
53433.0,STARLINK-4549,PAYLOAD,2024-04-14 21:21:32,15.08843519,0.0001435,53.2183,338.7051,104.9789,255.1362,0.00012434,1.692e-05,0.0,0 STARLINK-4549,1 53433U 22097AX  24105.88995431  .00001692  00000-0  12434-3 0  9992,2 53433  53.2183 338.7051 0001435 104.9789 255.1362 15.08843519 94023,6917.87,95.437,540.727,538.742,0.0
53433.0,STARLINK-4549,PAYLOAD,2024-04-15 00:32:18,15.08844977,0.0001366,53.2183,338.1105,94.8252,265.2896,0.00013841,1.916e-05,0.0,0 STARLINK-4549,1 53433U 22097AX  24106.02243393  .00001916  00000-0  13841-3 0  9994,2 53433  53.2183 338.1105 0001366  94.8252 265.2896 15.08844977 94047,6917.865,95.437,540.675,538.785,0.0
53433.0,STARLINK-4549,PAYLOAD,2024-04-15 21:12:19,15.08836431,0.0001422,53.2188,334.2448,96.7895,263.3259,2.7765e-05,1.54e-06,0.0,0 STARLINK-4549,1 53433U 22097AX  24106.88355984  .00000154  00000-0  27765-4 0  9992,2 53433  53.2188 334.2448 0001422  96.7895 263.3259 15.08836431 93717,6917.891,95.438,540.74,538.773,0.0
53433.0,STARLINK-4549,PAYLOAD,2024-04-16 08:20:00,15.08856051,0.0001315,53.2187,332.1645,87.3356,272.7787,0.00021237,3.095e-05,0.0,0 STARLINK-4549,1 53433U 22097AX  24107.34722721  .00003095  00000-0  21237-3 0  9995,2 53433  53.2187 332.1645 0001315  87.3356 272.7787 15.08856051 93788,6917.831,95.437,540.606,538.787,0.0
53433.0,STARLINK-4549,PAYLOAD,2024-04-16 21:03:05,15.08848113,0.0001539,53.218,329.7859,85.1014,275.0153,0.00013637,1.883e-05,0.0,0 STARLINK-4549,1 53433U 22097AX  24107.87715270  .00001883  00000-0  13637-3 0  9992,2 53433  53.2180 329.7859 0001539  85.1014 275.0153 15.08848113 93867,6917.856,95.437,540.785,538.656,0.0
53433.0,STARLINK-4549,PAYLOAD,2024-04-17 19:18:30,15.08834488,0.0001503,53.2173,325.6229,129.9607,230.1517,0.00010664,1.409e-05,0.0,0 STARLINK-4549,1 53433U 22097AX  24108.80451978  .00001409  00000-0  10664-3 0  9999,2 53433  53.2173 325.6229 0001503 129.9607 230.1517 15.08834488 94004,6917.897,95.438,540.802,538.722,0.0
53433.0,STARLINK-4549,PAYLOAD,2024-04-17 20:53:53,15.08837331,0.0001644,53.2174,325.3253,136.9322,223.1799,7.304e-06,-1.72e-06,0.0,0 STARLINK-4549,1 53433U 22097AX  24108.87075851 -.00000172  00000-0  73040-5 0  9994,2 53433  53.2174 325.3253 0001644 136.9322 223.1799 15.08837331 94472,6917.889,95.438,540.891,538.616,0.0
53433.0,STARLINK-4549,PAYLOAD,2024-04-18 00:04:40,15.08834599,0.0001343,53.2165,324.733,126.3365,233.7751,-3.5592e-05,-8.54e-06,0.0,0 STARLINK-4549,1 53433U 22097AX  24109.00324126 -.00000854  00000-0 -35592-4 0  9999,2 53433  53.2165 324.7330 0001343 126.3365 233.7751 15.08834599 94497,6917.897,95.438,540.691,538.833,0.0
53433.0,STARLINK-4549,PAYLOAD,2024-04-18 20:44:43,15.0881217,0.0001577,53.2161,320.867,55.6119,304.5022,-0.00023365,-4.002e-05,0.0,0 STARLINK-4549,1 53433U 22097AX  24109.86438755 -.00004002  00000-0 -23365-3 0  9990,2 53433  53.2161 320.8670 0001577  55.6119 304.5022 15.08812170 94160,6917.965,95.439,540.921,538.739,0.0
53433.0,STARLINK-4549,PAYLOAD,2024-04-19 14:13:56,15.08840024,0.0001183,53.2166,317.5884,104.0623,256.0501,0.00050143,7.701e-05,0.0,0 STARLINK-4549,1 53433U 22097AX  24110.59301475  .00007701  00000-0  50143-3 0  9991,2 53433  53.2166 317.5884 0001183 104.0623 256.0501 15.08840024 94732,6917.88,95.438,540.564,538.927,0.0
53433.0,STARLINK-4549,PAYLOAD,2024-04-19 20:35:26,15.08864059,0.000145,53.2183,316.3988,111.394,248.7207,0.00052096,8.018e-05,0.0,0 STARLINK-4549,1 53433U 22097AX  24110.85794435  .00008018  00000-0  52096-3 0  9993,2 53433  53.2183 316.3988 0001450 111.3940 248.7207 15.08864059 94312,6917.807,95.436,540.675,538.669,0.0
53433.0,STARLINK-4549,PAYLOAD,2024-04-20 14:04:42,15.08856367,0.0001338,53.217,313.1329,116.338,243.775,0.0005927,9.162e-05,0.0,0 STARLINK-4549,1 53433U 22097AX  24111.58659934  .00009162  00000-0  59270-3 0  9990,2 53433  53.2170 313.1329 0001338 116.3380 243.7750 15.08856367 94883,6917.83,95.437,540.621,538.77,0.0
53433.0,STARLINK-4549,PAYLOAD,2024-04-20 20:26:15,15.08829863,0.0001697,53.2174,311.9452,116.2046,243.9121,6.9503e-05,8.18e-06,0.0,0 STARLINK-4549,1 53433U 22097AX  24111.85156976  .00000818  00000-0  69503-4 0  9998,2 53433  53.2174 311.9452 0001697 116.2046 243.9121 15.08829863 94465,6917.911,95.438,540.95,538.602,0.0
53433.0,STARLINK-4549,PAYLOAD,2024-04-21 18:41:38,15.08844379,0.000172,53.2176,307.7776,102.1346,257.9839,-0.0003779,-6.298e-05,0.0,0 STARLINK-4549,1 53433U 22097AX  24112.77891784 -.00006298  00000-0 -37790-3 0  9995,2 53433  53.2176 307.7776 0001720 102.1346 257.9839 15.08844379 94609,6917.867,95.437,540.922,538.542,0.0
53433.0,STARLINK-4549,PAYLOAD,2024-04-21 21:52:24,15.08844835,0.0001697,53.2177,307.1815,96.9458,263.1727,-0.00032902,-5.521e-05,0.0,0 STARLINK-4549,1 53433U 22097AX  24112.91139765 -.00005521  00000-0 -32902-3 0  9993,2 53433  53.2177 307.1815 0001697  96.9458 263.1727 15.08844835 95080,6917.866,95.437,540.905,538.557,0.0
53433.0,STARLINK-4549,PAYLOAD,2024-04-21 23:27:47,15.08844286,0.0001727,53.2178,306.8862,99.1411,260.9777,-0.00030198,-5.092e-05,0.0,0 STARLINK-4549,1 53433U 22097AX  24112.97763824 -.00005092  00000-0 -30198-3 0  9996,2 53433  53.2178 306.8862 0001727  99.1411 260.9777 15.08844286 95098,6917.867,95.437,540.927,538.538,0.0
53433.0,STARLINK-4549,PAYLOAD,2024-04-22 20:07:49,15.08839012,0.0001715,53.218,303.0188,90.1985,269.9204,-0.00016903,-2.977e-05,0.0,0 STARLINK-4549,1 53433U 22097AX  24113.83876698 -.00002977  00000-0 -16903-3 0  9993,2 53433  53.2180 303.0188 0001715  90.1985 269.9204 15.08839012 94763,6917.883,95.438,540.935,538.562,0.0
53433.0,STARLINK-4549,PAYLOAD,2024-04-23 12:01:41,15.08835887,0.0001787,53.2181,300.0452,81.8746,278.2449,0.00018344,2.632e-05,0.0,0 STARLINK-4549,1 53433U 22097AX  24114.50117468  .00002632  00000-0  18344-3 0  9998,2 53433  53.2181 300.0452 0001787  81.8746 278.2449 15.08835887 95329,6917.893,95.438,540.994,538.522,0.0
53433.0,STARLINK-4549,PAYLOAD,2024-04-23 19:58:36,15.08842242,0.000141,53.2166,298.5616,90.76,269.3554,0.00026156,3.877e-05,0.0,0 STARLINK-4549,1 53433U 22097AX  24114.83237190  .00003877  00000-0  26156-3 0  9991,2 53433  53.2166 298.5616 0001410  90.7600 269.3554 15.08842242 95372,6917.874,95.437,540.714,538.763,0.0
53433.0,STARLINK-4549,PAYLOAD,2024-04-24 16:38:37,15.08841632,0.0001276,53.2176,294.6965,99.9939,260.1197,0.00013209,1.815e-05,0.0,0 STARLINK-4549,1 53433U 22097AX  24115.69349266  .00001815  00000-0  13209-3 0  9999,2 53433  53.2176 294.6965 0001276  99.9939 260.1197 15.08841632 95041,6917.875,95.437,540.623,538.858,0.0
